NORAD_CAT_ID,OBJECT_NAME,OBJECT_TYPE,EPOCH,MEAN_MOTION,ECCENTRICITY,INCLINATION,RA_OF_ASC_NODE,ARG_OF_PERICENTER,MEAN_ANOMALY,BSTAR,MEAN_MOTION_DOT,MEAN_MOTION_DDOT,TLE_LINE0,TLE_LINE1,TLE_LINE2,SEMIMAJOR_AXIS,PERIOD,APOGEE,PERIGEE,DECAYED
49450.0,STARLINK-3127,PAYLOAD,2024-01-19 14:02:35,15.08845014,0.0002028,53.2176,121.1855,61.3362,298.7834,4.6528e-05,4.52e-06,0.0,0 STARLINK-3127,1 49450U 21104AU  24019.58512864  .00000452  00000-0  46528-4 0  9995,2 49450  53.2176 121.1855 0002028  61.3362 298.7834 15.08845014121263,6917.865,95.437,541.133,538.327,0.0
49450.0,STARLINK-3127,PAYLOAD,2024-01-19 15:37:57,15.08847355,0.0001847,53.2177,120.8883,71.0941,289.0252,6.3641e-05,7.25e-06,0.0,0 STARLINK-3127,1 49450U 21104AU  24019.65136571  .00000725  00000-0  63641-4 0  9998,2 49450  53.2177 120.8883 0001847  71.0941 289.0252 15.08847355122088,6917.858,95.437,541.001,538.445,0.0
49450.0,STARLINK-3127,PAYLOAD,2024-01-20 10:42:36,15.088391,0.0001757,53.217,117.3184,75.6664,284.4523,1.883e-06,-2.58e-06,0.0,0 STARLINK-3127,1 49450U 21104AU  24020.44625291 -.00000258  00000-0  18830-5 0  9992,2 49450  53.2170 117.3184 0001757  75.6664 284.4523 15.08839100122201,6917.883,95.438,540.964,538.533,0.0
49450.0,STARLINK-3127,PAYLOAD,2024-01-20 13:53:22,15.08843106,0.0001655,53.2182,116.7232,61.6791,298.4368,-4.3049e-05,-9.73e-06,0.0,0 STARLINK-3127,1 49450U 21104AU  24020.57873160 -.00000973  00000-0 -43049-4 0  9990,2 49450  53.2182 116.7232 0001655  61.6791 298.4368 15.08843106121419,6917.871,95.437,540.881,538.591,0.0
49450.0,STARLINK-3127,PAYLOAD,2024-01-20 15:28:45,15.08840726,0.0001608,53.2186,116.4225,84.1923,275.9253,-1.9885e-05,-6.04e-06,0.0,0 STARLINK-3127,1 49450U 21104AU  24020.64497105 -.00000604  00000-0 -19885-4 0  9991,2 49450  53.2186 116.4225 0001608  84.1923 275.9253 15.08840726121426,6917.878,95.438,540.856,538.631,0.0
49450.0,STARLINK-3127,PAYLOAD,2024-01-21 12:08:46,15.08842901,0.0001613,53.2176,112.5614,78.5674,281.5499,-3.8442e-05,-9e-06,0.0,0 STARLINK-3127,1 49450U 21104AU  24021.50609376 -.00000900  00000-0 -38442-4 0  9991,2 49450  53.2176 112.5614 0001613  78.5674 281.5499 15.08842901122366,6917.872,95.437,540.852,538.621,0.0
49450.0,STARLINK-3127,PAYLOAD,2024-01-21 15:19:31,15.08852318,0.0001671,53.2176,111.9658,76.2946,283.8232,8.3471e-05,1.041e-05,0.0,0 STARLINK-3127,1 49450U 21104AU  24021.63856474  .00001041  00000-0  83471-4 0  9995,2 49450  53.2176 111.9658 0001671  76.2946 283.8232 15.08852318122383,6917.843,95.437,540.864,538.552,0.0
49450.0,STARLINK-3127,PAYLOAD,2024-01-22 05:38:01,15.08837957,0.0001298,53.2168,109.2877,100.8832,259.2306,2.3749e-05,9e-07,0.0,0 STARLINK-3127,1 49450U 21104AU  24022.23473416  .00000090  00000-0  23749-4 0  9998,2 49450  53.2168 109.2877 0001298 100.8832 259.2306 15.08837957121661,6917.887,95.438,540.65,538.854,0.0
49450.0,STARLINK-3127,PAYLOAD,2024-01-22 11:59:33,15.08844934,0.0001577,53.2155,108.1033,71.7982,288.3181,0.00011089,1.477e-05,0.0,0 STARLINK-3127,1 49450U 21104AU  24022.49968890  .00001477  00000-0  11089-3 0  9994,2 49450  53.2155 108.1033 0001577  71.7982 288.3181 15.08844934122513,6917.865,95.437,540.821,538.639,0.0
49450.0,STARLINK-3127,PAYLOAD,2024-01-23 11:50:20,15.08849497,0.0001498,53.2174,103.6391,87.3058,272.8106,1.6458e-05,-2.6e-07,0.0,0 STARLINK-3127,1 49450U 21104AU  24023.49328742 -.00000026  00000-0  16458-4 0  9997,2 49450  53.2174 103.6391 0001498  87.3058 272.8106 15.08849497121850,6917.851,95.437,540.753,538.68,0.0
49450.0,STARLINK-3127,PAYLOAD,2024-01-24 11:41:07,15.08842304,0.000147,53.2166,99.1803,96.9153,263.2007,-3.1602e-05,-7.91e-06,0.0,0 STARLINK-3127,1 49450U 21104AU  24024.48689341 -.00000791  00000-0 -31602-4 0  9990,2 49450  53.2166  99.1803 0001470  96.9153 263.2007 15.08842304122811,6917.873,95.437,540.755,538.721,0.0
49450.0,STARLINK-3127,PAYLOAD,2024-01-25 09:56:31,15.08840354,0.0001381,53.2169,95.0184,104.272,255.8425,-3.028e-05,-7.7e-06,0.0,0 STARLINK-3127,1 49450U 21104AU  24025.41425711 -.00000770  00000-0 -30280-4 0  9991,2 49450  53.2169  95.0184 0001381 104.2720 255.8425 15.08840354122145,6917.879,95.438,540.7,538.789,0.0
49450.0,STARLINK-3127,PAYLOAD,2024-01-26 11:22:41,15.08844397,0.0002205,53.2183,90.2612,134.7299,225.3873,0.00010685,1.413e-05,0.0,0 STARLINK-3127,1 49450U 21104AU  24026.47409114  .00001413  00000-0  10685-3 0  9996,2 49450  53.2183  90.2612 0002205 134.7299 225.3873 15.08844397123117,6917.867,95.437,541.257,538.207,0.0
49450.0,STARLINK-3127,PAYLOAD,2024-01-27 11:13:30,15.08820301,0.0001271,53.2168,85.7995,83.6491,276.4646,-0.00012414,-2.262e-05,0.0,0 STARLINK-3127,1 49450U 21104AU  24027.46770977 -.00002262  00000-0 -12414-3 0  9991,2 49450  53.2168  85.7995 0001271  83.6491 276.4646 15.08820301123261,6917.941,95.439,540.685,538.926,0.0
49450.0,STARLINK-3127,PAYLOAD,2024-01-27 12:48:53,15.08820228,0.0001276,53.2168,85.5001,84.953,275.1608,-0.00012021,-2.199e-05,0.0,0 STARLINK-3127,1 49450U 21104AU  24027.53395003 -.00002199  00000-0 -12021-3 0  9995,2 49450  53.2168  85.5001 0001276  84.9530 275.1608 15.08820228122463,6917.941,95.439,540.689,538.923,0.0
49450.0,STARLINK-3127,PAYLOAD,2024-01-28 11:04:16,15.08842307,0.0001694,53.2165,81.3428,122.6321,237.4835,-9.8554e-05,-1.856e-05,0.0,0 STARLINK-3127,1 49450U 21104AU  24028.46130055 -.00001856  00000-0 -98554-4 0  9997,2 49450  53.2165  81.3428 0001694 122.6321 237.4835 15.08842307123410,6917.873,95.437,540.91,538.566,0.0
49450.0,STARLINK-3127,PAYLOAD,2024-01-28 12:39:39,15.08842828,0.0001421,53.2181,81.0349,97.4259,262.6895,-4.6178e-05,-1.023e-05,0.0,0 STARLINK-3127,1 49450U 21104AU  24028.52753873 -.00001023  00000-0 -46178-4 0  9994,2 49450  53.2181  81.0349 0001421  97.4259 262.6895 15.08842828122619,6917.872,95.437,540.72,538.754,0.0
49450.0,STARLINK-3127,PAYLOAD,2024-01-29 12:30:26,15.08835807,0.0001541,53.2174,76.5762,70.9228,289.1931,0.00029498,4.409e-05,0.0,0 STARLINK-3127,1 49450U 21104AU  24029.52113458  .00004409  00000-0  29498-3 0  9998,2 49450  53.2174  76.5762 0001541  70.9228 289.1931 15.08835807123574,6917.893,95.438,540.824,538.692,0.0
49450.0,STARLINK-3127,PAYLOAD,2024-01-30 12:21:13,15.08849802,0.0001313,53.2177,72.12,72.0205,288.093,7.9295e-05,9.75e-06,0.0,0 STARLINK-3127,1 49450U 21104AU  24030.51473440  .00000975  00000-0  79295-4 0  9994,2 49450  53.2177  72.1200 0001313  72.0205 288.0930 15.08849802122915,6917.85,95.437,540.624,538.807,0.0
49450.0,STARLINK-3127,PAYLOAD,2024-01-31 12:12:00,15.08847515,0.0001734,53.2183,67.6554,83.0392,277.0797,7.3323e-06,-1.71e-06,0.0,0 STARLINK-3127,1 49450U 21104AU  24031.50833585 -.00000171  00000-0  73323-5 0  9990,2 49450  53.2183  67.6554 0001734  83.0392 277.0797 15.08847515123873,6917.857,95.437,540.922,538.523,0.0
49450.0,STARLINK-3127,PAYLOAD,2024-02-01 07:16:38,15.08841198,0.0001527,53.2182,64.0848,109.973,250.1427,-6.361e-05,-1.3e-05,0.0,0 STARLINK-3127,1 49450U 21104AU  24032.30322267 -.00001300  00000-0 -63610-4 0  9992,2 49450  53.2182  64.0848 0001527 109.9730 250.1427 15.08841198123999,6917.877,95.437,540.798,538.685,0.0
49450.0,STARLINK-3127,PAYLOAD,2024-02-01 12:02:47,15.0884733,0.0001505,53.2177,63.1958,114.0337,246.0812,-0.0001516,-2.7e-05,0.0,0 STARLINK-3127,1 49450U 21104AU  24032.50194168 -.00002700  00000-0 -15160-3 0  9992,2 49450  53.2177  63.1958 0001505 114.0337 246.0812 15.08847330123212,6917.858,95.437,540.764,538.682,0.0
49450.0,STARLINK-3127,PAYLOAD,2024-02-02 11:53:34,15.08843501,0.0001682,53.2177,58.7345,107.7904,252.3272,6.7964e-05,7.94e-06,0.0,0 STARLINK-3127,1 49450U 21104AU  24033.49553845  .00000794  00000-0  67964-4 0  9991,2 49450  53.2177  58.7345 0001682 107.7904 252.3272 15.08843501124179,6917.87,95.437,540.898,538.571,0.0
49450.0,STARLINK-3127,PAYLOAD,2024-02-03 02:12:03,15.088352,0.0001398,53.2171,56.0602,95.4691,264.6461,4.3899e-05,4.11e-06,0.0,0 STARLINK-3127,1 49450U 21104AU  24034.09170692  .00000411  00000-0  43899-4 0  9990,2 49450  53.2171  56.0602 0001398  95.4691 264.6461 15.08835200124263,6917.895,95.438,540.727,538.793,0.0
49450.0,STARLINK-3127,PAYLOAD,2024-02-03 06:58:13,15.08833553,0.0001521,53.2174,55.1683,95.9443,264.1722,3.6172e-05,2.88e-06,0.0,0 STARLINK-3127,1 49450U 21104AU  24034.29042937  .00000288  00000-0  36172-4 0  9990,2 49450  53.2174  55.1683 0001521  95.9443 264.1722 15.08833553123480,6917.9,95.438,540.817,538.713,0.0
49450.0,STARLINK-3127,PAYLOAD,2024-02-03 18:05:55,15.08836492,0.0001575,53.2183,53.0873,91.1302,268.9871,2.9005e-05,1.74e-06,0.0,0 STARLINK-3127,1 49450U 21104AU  24034.75410954  .00000174  00000-0  29005-4 0  9990,2 49450  53.2183  53.0873 0001575  91.1302 268.9871 15.08836492123559,6917.891,95.438,540.846,538.667,0.0
49450.0,STARLINK-3127,PAYLOAD,2024-02-04 09:59:46,15.08819572,0.0001727,53.2178,50.1127,95.586,264.5329,0.00053167,8.179e-05,0.0,0 STARLINK-3127,1 49450U 21104AU  24035.41650626  .00008179  00000-0  53167-3 0  9994,2 49450  53.2178  50.1127 0001727  95.5860 264.5329 15.08819572124460,6917.943,95.439,541.003,538.613,0.0
49450.0,STARLINK-3127,PAYLOAD,2024-02-05 08:15:11,15.088364,0.0001548,53.2174,45.9499,92.3225,267.7944,0.00011948,1.614e-05,0.0,0 STARLINK-3127,1 49450U 21104AU  24036.34388000  .00001614  00000-0  11948-3 0  9999,2 49450  53.2174  45.9499 0001548  92.3225 267.7944 15.08836400124604,6917.891,95.438,540.827,538.686,0.0
49450.0,STARLINK-3127,PAYLOAD,2024-02-06 00:09:01,15.08850106,0.0001526,53.2176,42.9761,87.2638,272.8528,0.00015143,2.123e-05,0.0,0 STARLINK-3127,1 49450U 21104AU  24037.00627134  .00002123  00000-0  15143-3 0  9994,2 49450  53.2176  42.9761 0001526  87.2638 272.8528 15.08850106124707,6917.849,95.437,540.77,538.659,0.0
49450.0,STARLINK-3127,PAYLOAD,2024-02-06 06:30:33,15.08861536,0.0001457,53.2175,41.7898,87.9444,272.1715,0.00017267,2.463e-05,0.0,0 STARLINK-3127,1 49450U 21104AU  24037.27122272  .00002463  00000-0  17267-3 0  9992,2 49450  53.2175  41.7898 0001457  87.9444 272.1715 15.08861536124743,6917.815,95.436,540.687,538.672,0.0
